GLOBALSTAR M045         
1 25676U 99019A   25307.87298993 -.00000065  00000+0  25578-3 0  9997
2 25676  51.9967 267.1329 0000593  70.8309 308.0301 12.27067625210544
GLOBALSTAR M019         
1 25677U 99019B   25307.69203578 -.00000009  00000+0  83903-3 0  9997
2 25677  51.9894  47.8290 0001053 208.1468 300.3674 12.13878804202080
GLOBALSTAR M044         
1 25678U 99019C   25307.94538922 -.00000109  00000+0 -35044-3 0  9995
2 25678  51.9997  15.9706 0005777 308.9047 222.4095 11.90259459187965
GLOBALSTAR M042         
1 25679U 99019D   25307.94780280 -.00000053  00000+0  36473-3 0  9996
2 25679  52.0041  16.4030 0002980 218.2769 313.4910 12.22090184202342
GLOBALSTAR M025         
1 25770U 99031A   25307.42092269 -.00000050  00000+0  53036-3 0  9999
2 25770  51.9791 196.7264 0002927  31.3759 139.8513 11.22557788497341
GLOBALSTAR M049         
1 25771U 99031B   25307.84504128 -.00000107  00000+0 -14503-2 0  9997
2 25771  51.9866 237.5255 0002332 261.0447  99.0086 11.12121230132969
GLOBALSTAR M047         
1 25772U 99031C   25307.49866029 -.00000061  00000+0  22794-3 0  9990
2 25772  51.9819 221.9698 0016435 138.9229 221.2817 11.31930779486886
GLOBALSTAR M052         
1 25773U 99031D   25307.43332046 -.00000059  00000+0  23463-3 0  9993
2 25773  51.9895 345.1750 0002582  46.7790 326.3485 11.15061486494043
